CCSDS_OMM_VERS = 2.0
CREATION_DATE  = 
ORIGINATOR     = 

OBJECT_NAME    = SL-16 R/B
OBJECT_ID      = 1998-043G
CENTER_NAME    = EARTH
REF_FRAME      = TEME
TIME_SYSTEM    = UTC
MEAN_ELEMENT_THEORY = SGP/SGP4

EPOCH          = 2025-12-21T08:36:11.092608
MEAN_MOTION    = 14.26027370
ECCENTRICITY   = .00088778
INCLINATION    = 98.8139
RA_OF_ASC_NODE = 303.2252
ARG_OF_PERICENTER = 238.7543
MEAN_ANOMALY   = 121.2767

EPHEMERIS_TYPE = 0
CLASSIFICATION_TYPE = U
NORAD_CAT_ID   = 25400
ELEMENT_SET_NO = 999
REV_AT_EPOCH   = 42782
BSTAR          = .33484405E-4
MEAN_MOTION_DOT = .35E-6
MEAN_MOTION_DDOT = 0

CCSDS_OMM_VERS = 2.0
CREATION_DATE  = 
ORIGINATOR     = 

OBJECT_NAME    = SL-16 R/B
OBJECT_ID      = 1998-045B
CENTER_NAME    = EARTH
REF_FRAME      = TEME
TIME_SYSTEM    = UTC
MEAN_ELEMENT_THEORY = SGP/SGP4

EPOCH          = 2025-12-21T09:10:08.874624
MEAN_MOTION    = 14.16175669
ECCENTRICITY   = .00064603
INCLINATION    = 71.0116
RA_OF_ASC_NODE = 346.2516
ARG_OF_PERICENTER = 162.4088
MEAN_ANOMALY   = 197.7260

EPHEMERIS_TYPE = 0
CLASSIFICATION_TYPE = U
NORAD_CAT_ID   = 25407
ELEMENT_SET_NO = 999
REV_AT_EPOCH   = 41601
BSTAR          = .12955549E-3
MEAN_MOTION_DOT = .209E-5
MEAN_MOTION_DDOT = 0

CCSDS_OMM_VERS = 2.0
CREATION_DATE  = 
ORIGINATOR     = 

OBJECT_NAME    = ISS (ZARYA)
OBJECT_ID      = 1998-067A
CENTER_NAME    = EARTH
REF_FRAME      = TEME
TIME_SYSTEM    = UTC
MEAN_ELEMENT_THEORY = SGP/SGP4

EPOCH          = 2025-12-21T13:40:08.668128
MEAN_MOTION    = 15.49703708
ECCENTRICITY   = .00031656
INCLINATION    = 51.6324
RA_OF_ASC_NODE = 98.7522
ARG_OF_PERICENTER = 281.5679
MEAN_ANOMALY   = 78.4955

EPHEMERIS_TYPE = 0
CLASSIFICATION_TYPE = U
NORAD_CAT_ID   = 25544
ELEMENT_SET_NO = 999
REV_AT_EPOCH   = 54422
BSTAR          = .1683656E-3
MEAN_MOTION_DOT = .9066E-4
MEAN_MOTION_DDOT = 0

CCSDS_OMM_VERS = 2.0
CREATION_DATE  = 
ORIGINATOR     = 

OBJECT_NAME    = CZ-4B R/B
OBJECT_ID      = 1999-025C
CENTER_NAME    = EARTH
REF_FRAME      = TEME
TIME_SYSTEM    = UTC
MEAN_ELEMENT_THEORY = SGP/SGP4

EPOCH          = 2025-12-21T01:37:37.037856
MEAN_MOTION    = 14.18245565
ECCENTRICITY   = .00366429
INCLINATION    = 98.6755
RA_OF_ASC_NODE = 36.1612
ARG_OF_PERICENTER = 209.6182
MEAN_ANOMALY   = 179.7199

EPHEMERIS_TYPE = 0
CLASSIFICATION_TYPE = U
NORAD_CAT_ID   = 25732
ELEMENT_SET_NO = 999
REV_AT_EPOCH   = 37702
BSTAR          = .44639032E-4
MEAN_MOTION_DOT = .49E-6
MEAN_MOTION_DDOT = 0

CCSDS_OMM_VERS = 2.0
CREATION_DATE  = 
ORIGINATOR     = 

OBJECT_NAME    = OKEAN-O
OBJECT_ID      = 1999-039A
CENTER_NAME    = EARTH
REF_FRAME      = TEME
TIME_SYSTEM    = UTC
MEAN_ELEMENT_THEORY = SGP/SGP4

EPOCH          = 2025-12-21T10:37:11.458272
MEAN_MOTION    = 14.80175613
ECCENTRICITY   = .00010152
INCLINATION    = 97.9590
RA_OF_ASC_NODE = 51.0685
ARG_OF_PERICENTER = 112.0419
MEAN_ANOMALY   = 248.0901

EPHEMERIS_TYPE = 0
CLASSIFICATION_TYPE = U
NORAD_CAT_ID   = 25860
ELEMENT_SET_NO = 999
REV_AT_EPOCH   = 42281
BSTAR          = .8906026E-4
MEAN_MOTION_DOT = .624E-5
MEAN_MOTION_DDOT = 0

CCSDS_OMM_VERS = 2.0
CREATION_DATE  = 
ORIGINATOR     = 

OBJECT_NAME    = SL-16 R/B
OBJECT_ID      = 1999-039B
CENTER_NAME    = EARTH
REF_FRAME      = TEME
TIME_SYSTEM    = UTC
MEAN_ELEMENT_THEORY = SGP/SGP4

EPOCH          = 2025-12-21T03:49:04.874016
MEAN_MOTION    = 14.81597378
ECCENTRICITY   = .00155612
INCLINATION    = 98.0114
RA_OF_ASC_NODE = 49.3105
ARG_OF_PERICENTER = 148.0584
MEAN_ANOMALY   = 212.1575

EPHEMERIS_TYPE = 0
CLASSIFICATION_TYPE = U
NORAD_CAT_ID   = 25861
ELEMENT_SET_NO = 999
REV_AT_EPOCH   = 42523
BSTAR          = .59203381E-4
MEAN_MOTION_DOT = .412E-5
MEAN_MOTION_DDOT = 0

CCSDS_OMM_VERS = 2.0
CREATION_DATE  = 
ORIGINATOR     = 

OBJECT_NAME    = DELTA 2 R/B
OBJECT_ID      = 1999-041E
CENTER_NAME    = EARTH
REF_FRAME      = TEME
TIME_SYSTEM    = UTC
MEAN_ELEMENT_THEORY = SGP/SGP4

EPOCH          = 2025-12-21T03:21:30.313152
MEAN_MOTION    = 14.11421328
ECCENTRICITY   = .05045285
INCLINATION    = 51.7609
RA_OF_ASC_NODE = 254.9130
ARG_OF_PERICENTER = 116.5231
MEAN_ANOMALY   = 248.8336

EPHEMERIS_TYPE = 0
CLASSIFICATION_TYPE = U
NORAD_CAT_ID   = 25876
ELEMENT_SET_NO = 999
REV_AT_EPOCH   = 35193
BSTAR          = .13483358E-3
MEAN_MOTION_DOT = .588E-5
MEAN_MOTION_DDOT = 0

CCSDS_OMM_VERS = 2.0
CREATION_DATE  = 
ORIGINATOR     = 

OBJECT_NAME    = HELIOS 1B
OBJECT_ID      = 1999-064A
CENTER_NAME    = EARTH
REF_FRAME      = TEME
TIME_SYSTEM    = UTC
MEAN_ELEMENT_THEORY = SGP/SGP4

EPOCH          = 2025-12-21T06:43:43.664736
MEAN_MOTION    = 14.87312710
ECCENTRICITY   = .0001203
INCLINATION    = 98.1757
RA_OF_ASC_NODE = 250.1993
ARG_OF_PERICENTER = 32.9309
MEAN_ANOMALY   = 327.1981

EPHEMERIS_TYPE = 0
CLASSIFICATION_TYPE = U
NORAD_CAT_ID   = 25977
ELEMENT_SET_NO = 999
REV_AT_EPOCH   = 67360
BSTAR          = .16079E-3
MEAN_MOTION_DOT = .1393E-4
MEAN_MOTION_DDOT = 0

CCSDS_OMM_VERS = 2.0
CREATION_DATE  = 
ORIGINATOR     = 

OBJECT_NAME    = TERRA
OBJECT_ID      = 1999-068A
CENTER_NAME    = EARTH
REF_FRAME      = TEME
TIME_SYSTEM    = UTC
MEAN_ELEMENT_THEORY = SGP/SGP4

EPOCH          = 2025-12-21T14:09:33.535872
MEAN_MOTION    = 14.60911086
ECCENTRICITY   = .0003512
INCLINATION    = 97.9735
RA_OF_ASC_NODE = 46.9492
ARG_OF_PERICENTER = 76.8406
MEAN_ANOMALY   = 91.6789

EPHEMERIS_TYPE = 0
CLASSIFICATION_TYPE = U
NORAD_CAT_ID   = 25994
ELEMENT_SET_NO = 999
REV_AT_EPOCH   = 38367
BSTAR          = .87571338E-4
MEAN_MOTION_DOT = .384E-5
MEAN_MOTION_DDOT = 0

CCSDS_OMM_VERS = 2.0
CREATION_DATE  = 
ORIGINATOR     = 

OBJECT_NAME    = SL-16 R/B
OBJECT_ID      = 2000-006B
CENTER_NAME    = EARTH
REF_FRAME      = TEME
TIME_SYSTEM    = UTC
MEAN_ELEMENT_THEORY = SGP/SGP4

EPOCH          = 2025-12-21T10:44:46.273056
MEAN_MOTION    = 14.15808352
ECCENTRICITY   = .00185855
INCLINATION    = 71.0018
RA_OF_ASC_NODE = 262.3482
ARG_OF_PERICENTER = 296.8330
MEAN_ANOMALY   = 63.0892

EPHEMERIS_TYPE = 0
CLASSIFICATION_TYPE = U
NORAD_CAT_ID   = 26070
ELEMENT_SET_NO = 999
REV_AT_EPOCH   = 33748
BSTAR          = -.14753241E-4
MEAN_MOTION_DOT = -.77E-6
MEAN_MOTION_DDOT = 0

CCSDS_OMM_VERS = 2.0
CREATION_DATE  = 
ORIGINATOR     = 

OBJECT_NAME    = TITAN 4B R/B
OBJECT_ID      = 2000-047B
CENTER_NAME    = EARTH
REF_FRAME      = TEME
TIME_SYSTEM    = UTC
MEAN_ELEMENT_THEORY = SGP/SGP4

EPOCH          = 2025-12-21T13:26:00.386880
MEAN_MOTION    = 15.08839594
ECCENTRICITY   = .00382849
INCLINATION    = 67.9896
RA_OF_ASC_NODE = 260.0835
ARG_OF_PERICENTER = 133.9622
MEAN_ANOMALY   = 226.4696

EPHEMERIS_TYPE = 0
CLASSIFICATION_TYPE = U
NORAD_CAT_ID   = 26474
ELEMENT_SET_NO = 999
REV_AT_EPOCH   = 38112
BSTAR          = .17385827E-3
MEAN_MOTION_DOT = .2653E-4
MEAN_MOTION_DDOT = 0

CCSDS_OMM_VERS = 2.0
CREATION_DATE  = 
ORIGINATOR     = 

OBJECT_NAME    = ENVISAT
OBJECT_ID      = 2002-009A
CENTER_NAME    = EARTH
REF_FRAME      = TEME
TIME_SYSTEM    = UTC
MEAN_ELEMENT_THEORY = SGP/SGP4

EPOCH          = 2025-12-18T22:44:27.718656
MEAN_MOTION    = 14.39001403
ECCENTRICITY   = .0001126
INCLINATION    = 98.3609
RA_OF_ASC_NODE = 303.5309
ARG_OF_PERICENTER = 84.8976
MEAN_ANOMALY   = 298.2993

EPHEMERIS_TYPE = 0
CLASSIFICATION_TYPE = U
NORAD_CAT_ID   = 27386
ELEMENT_SET_NO = 999
REV_AT_EPOCH   = 24756
BSTAR          = .39999337E-4
MEAN_MOTION_DOT = .81E-6
MEAN_MOTION_DDOT = 0

